{
  "type": "FeatureCollection",
  "features": [
    {
      "type": "Feature",
      "properties": {
        "norad_id": 60182,
        "name": "ALOS-4 (DAICHI-4)",
        "group": "resource",
        "lat": -10.87790383725684,
        "lon": -85.42231091236205,
        "alt_km": 635.3263801382436,
        "timestamp": "2025-12-27T11:23:19.535343+00:00",
        "meta_object_name": "ALOS-4 (DAICHI-4)",
        "meta_object_id": "2024-123A",
        "meta_epoch": "2025-12-26T19:55:12.965952",
        "meta_mean_motion": 14.79478137,
        "meta_eccentricity": 0.00014191,
        "meta_inclination": 97.9215,
        "meta_ra_of_asc_node": 95.4758,
        "meta_arg_of_pericenter": 100.4397,
        "meta_mean_anomaly": 259.6975,
        "meta_ephemeris_type": 0,
        "meta_classification_type": "U",
        "meta_norad_cat_id": 60182,
        "meta_element_set_no": 999,
        "meta_rev_at_epoch": 8039,
        "meta_bstar": 0.00030778868,
        "meta_mean_motion_dot": 2.248e-05,
        "meta_mean_motion_ddot": 0,
        "tle_line1": "1 60182U 24123A   25360.83001118  .00002248  00000+0  30779-3 0  9991",
        "tle_line2": "2 60182  97.9215  95.4758 0001419 100.4397 259.6975 14.79478137 80393"
      },
      "geometry": {
        "type": "Point",
        "coordinates": [
          -85.42231091236205,
          -10.87790383725684
        ]
      }
    },
    {
      "type": "Feature",
      "properties": {
        "norad_id": 60452,
        "name": "LEGION 3",
        "group": "resource",
        "lat": 36.629872154532265,
        "lon": 3.060473934222104,
        "alt_km": 522.4201000571165,
        "timestamp": "2025-12-27T11:23:19.535354+00:00",
        "meta_object_name": "LEGION 3",
        "meta_object_id": "2024-146A",
        "meta_epoch": "2025-12-27T02:56:33.226656",
        "meta_mean_motion": 15.15909819,
        "meta_eccentricity": 0.0015776,
        "meta_inclination": 45.0004,
        "meta_ra_of_asc_node": 233.0201,
        "meta_arg_of_pericenter": 274.8666,
        "meta_mean_anomaly": 85.0412,
        "meta_ephemeris_type": 0,
        "meta_classification_type": "U",
        "meta_norad_cat_id": 60452,
        "meta_element_set_no": 999,
        "meta_rev_at_epoch": 7591,
        "meta_bstar": 0.00033039,
        "meta_mean_motion_dot": 6.195e-05,
        "meta_mean_motion_ddot": 0,
        "tle_line1": "1 60452U 24146A   25361.12260679  .00006195  00000+0  33039-3 0  9995",
        "tle_line2": "2 60452  45.0004 233.0201 0015776 274.8666  85.0412 15.15909819 75918"
      },
      "geometry": {
        "type": "Point",
        "coordinates": [
          3.060473934222104,
          36.629872154532265
        ]
      }
    },
    {
      "type": "Feature",
      "properties": {
        "norad_id": 60453,
        "name": "LEGION 4",
        "group": "resource",
        "lat": 36.5314361292034,
        "lon": 95.17047030683025,
        "alt_km": 512.2549692274843,
        "timestamp": "2025-12-27T11:23:19.535365+00:00",
        "meta_object_name": "LEGION 4",
        "meta_object_id": "2024-146B",
        "meta_epoch": "2025-12-27T04:31:30.027072",
        "meta_mean_motion": 15.15986372,
        "meta_eccentricity": 0.0007811,
        "meta_inclination": 45.0397,
        "meta_ra_of_asc_node": 324.4607,
        "meta_arg_of_pericenter": 32.4876,
        "meta_mean_anomaly": 327.6483,
        "meta_ephemeris_type": 0,
        "meta_classification_type": "U",
        "meta_norad_cat_id": 60453,
        "meta_element_set_no": 999,
        "meta_rev_at_epoch": 7477,
        "meta_bstar": 0.00037029,
        "meta_mean_motion_dot": 6.976e-05,
        "meta_mean_motion_ddot": 0,
        "tle_line1": "1 60453U 24146B   25361.18854198  .00006976  00000+0  37029-3 0  9997",
        "tle_line2": "2 60453  45.0397 324.4607 0007811  32.4876 327.6483 15.15986372 74776"
      },
      "geometry": {
        "type": "Point",
        "coordinates": [
          95.17047030683025,
          36.5314361292034
        ]
      }
    },
    {
      "type": "Feature",
      "properties": {
        "norad_id": 60989,
        "name": "SENTINEL-2C",
        "group": "resource",
        "lat": -75.54375278730225,
        "lon": -142.0375531304103,
        "alt_km": 797.2066530966276,
        "timestamp": "2025-12-27T11:23:19.535375+00:00",
        "meta_object_name": "SENTINEL-2C",
        "meta_object_id": "2024-157A",
        "meta_epoch": "2025-12-27T03:28:19.137216",
        "meta_mean_motion": 14.30818343,
        "meta_eccentricity": 0.000137,
        "meta_inclination": 98.5665,
        "meta_ra_of_asc_node": 73.4185,
        "meta_arg_of_pericenter": 102.0741,
        "meta_mean_anomaly": 258.0595,
        "meta_ephemeris_type": 0,
        "meta_classification_type": "U",
        "meta_norad_cat_id": 60989,
        "meta_element_set_no": 999,
        "meta_rev_at_epoch": 6838,
        "meta_bstar": 8.3611e-05,
        "meta_mean_motion_dot": 1.76e-06,
        "meta_mean_motion_ddot": 0,
        "tle_line1": "1 60989U 24157A   25361.14466594  .00000176  00000+0  83611-4 0  9993",
        "tle_line2": "2 60989  98.5665  73.4185 0001370 102.0741 258.0595 14.30818343 68381"
      },
      "geometry": {
        "type": "Point",
        "coordinates": [
          -142.0375531304103,
          -75.54375278730225
        ]
      }
    },
    {
      "type": "Feature",
      "properties": {
        "norad_id": 61735,
        "name": "IONOSFERA-M 1",
        "group": "resource",
        "lat": 79.60526217277113,
        "lon": 108.19738050006355,
        "alt_km": 808.7963616727247,
        "timestamp": "2025-12-27T11:23:19.535385+00:00",
        "meta_object_name": "IONOSFERA-M 1",
        "meta_object_id": "2024-199A",
        "meta_epoch": "2025-12-27T04:11:22.191360",
        "meta_mean_motion": 14.22717295,
        "meta_eccentricity": 2.44e-05,
        "meta_inclination": 98.7395,
        "meta_ra_of_asc_node": 230.9113,
        "meta_arg_of_pericenter": 0.9795,
        "meta_mean_anomaly": 359.1384,
        "meta_ephemeris_type": 0,
        "meta_classification_type": "U",
        "meta_norad_cat_id": 61735,
        "meta_element_set_no": 999,
        "meta_rev_at_epoch": 10324,
        "meta_bstar": 5.1522e-05,
        "meta_mean_motion_dot": 7.1e-07,
        "meta_mean_motion_ddot": 0,
        "tle_line1": "1 61735U 24199A   25361.17456240  .00000071  00000+0  51522-4 0  9999",
        "tle_line2": "2 61735  98.7395 230.9113 0000244   0.9795 359.1384 14.22717295103247"
      },
      "geometry": {
        "type": "Point",
        "coordinates": [
          108.19738050006355,
          79.60526217277113
        ]
      }
    },
    {
      "type": "Feature",
      "properties": {
        "norad_id": 61736,
        "name": "IONOSFERA-M 2",
        "group": "resource",
        "lat": -77.90747508694277,
        "lon": -82.99091239163407,
        "alt_km": 824.825347965083,
        "timestamp": "2025-12-27T11:23:19.535395+00:00",
        "meta_object_name": "IONOSFERA-M 2",
        "meta_object_id": "2024-199B",
        "meta_epoch": "2025-12-27T05:01:13.850976",
        "meta_mean_motion": 14.22719481,
        "meta_eccentricity": 0.0001879,
        "meta_inclination": 98.7394,
        "meta_ra_of_asc_node": 230.858,
        "meta_arg_of_pericenter": 91.9026,
        "meta_mean_anomaly": 268.2367,
        "meta_ephemeris_type": 0,
        "meta_classification_type": "U",
        "meta_norad_cat_id": 61736,
        "meta_element_set_no": 999,
        "meta_rev_at_epoch": 10637,
        "meta_bstar": 5.3523e-05,
        "meta_mean_motion_dot": 7.6e-07,
        "meta_mean_motion_ddot": 0,
        "tle_line1": "1 61736U 24199B   25361.20918809  .00000076  00000+0  53523-4 0  9996",
        "tle_line2": "2 61736  98.7394 230.8580 0001879  91.9026 268.2367 14.22719481106373"
      },
      "geometry": {
        "type": "Point",
        "coordinates": [
          -82.99091239163407,
          -77.90747508694277
        ]
      }
    },
    {
      "type": "Feature",
      "properties": {
        "norad_id": 63772,
        "name": "BIOMASS",
        "group": "resource",
        "lat": -35.681730481299866,
        "lon": -167.88570421610277,
        "alt_km": 675.6231123994794,
        "timestamp": "2025-12-27T11:23:19.535405+00:00",
        "meta_object_name": "BIOMASS",
        "meta_object_id": "2025-090A",
        "meta_epoch": "2025-12-27T00:05:53.851200",
        "meta_mean_motion": 14.67535929,
        "meta_eccentricity": 0.0001041,
        "meta_inclination": 98.0692,
        "meta_ra_of_asc_node": 185.8039,
        "meta_arg_of_pericenter": 86.5947,
        "meta_mean_anomaly": 273.5377,
        "meta_ephemeris_type": 0,
        "meta_classification_type": "U",
        "meta_norad_cat_id": 63772,
        "meta_element_set_no": 999,
        "meta_rev_at_epoch": 3543,
        "meta_bstar": 0.00025004,
        "meta_mean_motion_dot": 1.37e-05,
        "meta_mean_motion_ddot": 0,
        "tle_line1": "1 63772U 25090A   25361.00409550  .00001370  00000+0  25004-3 0  9995",
        "tle_line2": "2 63772  98.0692 185.8039 0001041  86.5947 273.5377 14.67535929 35430"
      },
      "geometry": {
        "type": "Point",
        "coordinates": [
          -167.88570421610277,
          -35.681730481299866
        ]
      }
    }
  ]
}